#cP2019 12 26  0  0  0.00000000      96 ORBIT IGS14 HLM  IGS
## 2085 345600.00000000   900.00000000 58843 0.0000000000000
+   32   G01G02G03G04G05G06G07G08G09G10G11G12G13G14G15G16G17
+        G18G19G20G21G22G23G24G25G26G27G28G29G30G31G32  0  0
+          0  0  0  0  0  0  0  0  0  0  0  0  0  0  0  0  0
+          0  0  0  0  0  0  0  0  0  0  0  0  0  0  0  0  0
+          0  0  0  0  0  0  0  0  0  0  0  0  0  0  0  0  0
++         2  2  2  2  2  2  2  2  2  2  2  2  2  2  2  2  2
++         3  2  2  2  2  2  2  2  2  2  2  2  2  2  2  0  0
++         0  0  0  0  0  0  0  0  0  0  0  0  0  0  0  0  0
++         0  0  0  0  0  0  0  0  0  0  0  0  0  0  0  0  0
++         0  0  0  0  0  0  0  0  0  0  0  0  0  0  0  0  0
%c G  cc GPS ccc cccc cccc cccc cccc ccccc ccccc ccccc ccccc
%c cc cc ccc ccc cccc cccc cccc cccc ccccc ccccc ccccc ccccc
%f  1.2500000  1.025000000  0.00000000000  0.000000000000000
%f  0.0000000  0.000000000  0.00000000000  0.000000000000000
%i    0    0    0    0      0      0      0      0         0
%i    0    0    0    0      0      0      0      0         0
/* FINAL ORBIT COMBINATION FROM WEIGHTED AVERAGE OF:        
/* cod emr esa gfz grg jpl mit ngs sio                      
/* REFERENCED TO IGS TIME (IGST) AND TO WEIGHTED MEAN POLE: 
/* PCV:IGS14_2086 OL/AL:FES2004  NONE     Y  ORB:CMB CLK:CMB
*  2019 12 26 17 15  0.00000000
PG01 -15810.080510  -2166.655699  21087.501216   -242.292703  5  2  4  97       
PG02  14040.500904  21628.142108  -5957.336207   -373.893403  4  5  5  67       
PG03 -20536.804935   9543.728985  13746.035689    -60.075256  5  5  3 105       
PG04 -25456.004153     54.139777  -7609.405434    -25.596880  6  7  6  56       
PG05  11680.803597  10170.415083 -21707.656108     -5.199726  3  6  3  74       
PG06   5614.756523  25459.951212   5041.338889   -164.766502  4  8     83       
PG07  -8881.580866  15667.682495 -19074.937026   -178.415964  7  4  5  91       
PG08 -25907.170087  -5920.142635  -2403.461812    -18.058752  3  4  4  85       
PG09 -19579.696679   8313.657320 -15964.609716   -117.632937  6  6  2  90       
PG10   8978.587715 -22413.751675  10868.447037   -186.653373  5  6  4  53       
PG11 -20499.964600  -2496.085373  16033.800112   -408.092919  4  2  3 101       
PG12  19953.567120  -4605.919335  16600.334786    169.088058  4  3  5  70       
PG13  21270.798504  13213.761371  -9093.643413    -24.096843  6  7  5 100       
PG14 -10055.349604 -16273.788767  18826.534093    -42.511624  6  9  4  97       
PG15  26467.388408   3598.772303  -2080.609684   -262.940889  6  6  3 104       
PG16  -9521.400961 -11461.939205 -22165.541515   -107.008309  4  5  5  97       
PG17  -1569.235938  14908.070885  22356.283218    187.654617  4  5  6 101       
PG18 -17260.129412 -10513.967602  16777.177612 999999.999999
PG19   6818.941787  15802.034372  19933.361154   -220.998858  3  7  5  91       
PG20  14510.029991 -22112.208471   -287.410594    527.740687  6  5  4  89       
PG21   5101.021739 -18988.497999 -17165.660609    -65.013075  7  6  5 114       
PG22 -18787.434230   2102.322360  18834.226125   -779.385099  7  5  5 103       
PG23 -25304.220428   1998.943881  -8105.748884   -147.089659  4  5  5  56       
PG24  17321.918248   3738.996990  19701.118104     -6.719246  2  6  5  76       
PG25  19525.204279 -16681.287408   5978.863234    -16.985084  7  6  4  83       
PG26  -2120.480758 -18778.071744 -18601.135428    114.048360  6  8  6  98       
PG27 -19949.809869 -12343.683342 -12872.159536   -162.264781  5  4  4  85       
PG28  -9677.718112  21595.545237  12792.100267    748.664171  6  6  3  85       
PG29  20322.794388  -5915.072785 -16087.586514      8.514898  7  7  6 112       
PG30  -1264.621090  23781.444646 -11524.730801   -114.794754  6  4  5  80       
PG31  -6613.823090 -25350.437714   2360.290628    -12.370488  4  6  5  93       
PG32    317.146657 -15458.929122  21663.460053    167.017750  5  3  6  75       
*  2019 12 26 17 30  0.00000000
PG01 -16623.998450  -4412.658382  20126.289283   -242.303829  4  3  3  98       
PG02  14062.446535  22274.555364  -3178.129594   -373.899797  4  6  5  79       
PG03 -19625.785972   8090.435577  15847.841937    -60.081761  5  4  3 105       
PG04 -26116.517261   -314.807799  -4878.166221    -25.601476  6  6  6  30       
PG05  10196.628520  12112.843353 -21438.204165     -5.200272  2  6  3  86       
PG06   5160.331797  24857.282406   7807.000583   -164.776190  4  8  1  82       
PG07  -9839.100659  13550.908184 -20219.235639   -178.423133  7  4  4  83       
PG08 -25446.982723  -6070.902809  -5219.908501    -18.059689  4  4  3  73       
PG09 -21242.170689   7894.727553 -13913.844816   -117.641215  6  6  1  91       
PG10   9837.926111 -23128.872581   8285.041664   -186.665916  5  6  4  81       
PG11 -21658.825831  -3945.976504  14138.337093   -408.083215  4  2  4  69       
PG12  18681.640996  -3004.682610  18348.241487    169.084361  4  4  6  16       
PG13  20094.086910  13096.369941 -11616.627375    -24.094489  6  7  5  96       
PG14  -7925.129219 -15893.604216  20129.657946    -42.509461  6  9  4  96       
PG15  26094.738439   3895.223701  -4810.301210   -262.938661  5  6  3 109       
PG16  -7796.812046 -13233.541365 -21807.681927   -107.011705  3  6  6  88       
PG17  -3979.629259  14417.145917  22373.842066    187.660709  4  5  6 100       
PG18 -17881.293816 -12311.032689  14859.562756 999999.999999
PG19   4478.365067  15290.489359  20955.529715   -220.994719  3  7  5  88       
PG20  14714.586637 -21773.908573  -3089.200693    527.740407  6  5  4  92       
PG21   6182.949435 -17074.356816 -18666.194300    -65.008287  6  6  5 123       
PG22 -17690.667876    197.135963  19999.846896   -779.386876  7  5  4 100       
PG23 -26075.937413   1633.888537  -5451.771997   -147.087589  4  5  6 104       
PG24  18140.110685   5802.923108  18469.634293     -6.718670  3  6  5  72       
PG25  19175.875413 -15845.933731   8695.219633    -16.984790  7  5  4  85       
PG26   -765.242814 -20317.277557 -16999.986111    114.055693  6  9  6  90       
PG27 -18378.038543 -12255.530795 -15094.327873   -162.275164  5  4  4  67       
PG28 -10635.302772  22387.091627  10326.658744    748.662334  6  6  3  83       
PG29  21965.749957  -5425.369431 -13957.757893      8.505814  6  7  6 114       
PG30  -2006.922070  22491.075991 -13798.856726   -114.802614  6  4  5  89       
PG31  -6186.487726 -25036.933338   5194.921026    -12.372810  3  6  5  98       
PG32   2764.316677 -15121.154075  21715.956748    167.027746  4  4  6  92       
*  2019 12 26 17 45  0.00000000
PG01 -17504.366285  -6489.557797  18815.381680   -242.314920  4  3  2  96       
PG02  13968.055331  22636.563536   -343.989996   -373.906447  4  7  4  87       
PG03 -18664.463540   6408.405714  17674.791926    -60.088262  6  4  3  95       
PG04 -26483.617577   -612.151674  -2063.057544    -25.605999  6  6  5  32       
PG05   8839.902623  14087.531098 -20803.629369     -5.200786  2  6  4  97       
PG06   4543.467257  24003.635844  10438.308311   -164.785855  4  7    100       
PG07 -10944.847377  11386.302656 -21003.330020   -178.430701  7  4  4  82       
PG08 -24683.499679  -6224.945523  -7947.675643    -18.060191  5  4  3  79       
PG09 -22679.681871   7577.966322 -11624.492440   -117.649552  6  5     55       
PG10  10487.629023 -23639.790471   5557.502695   -186.678437  4  7  4  68       
PG11 -22698.046921  -5197.278929  11988.362553   -408.073197  3  3  4  88       
PG12  17384.936748  -1194.582811  19773.071119    169.080737  4  4  6  69       
PG13  18645.981663  12984.440397 -13941.703947    -24.092185  6  7  5  98       
PG14  -5652.847776 -15605.905453  21097.254749    -42.507459  5  8  4  96       
PG15  25437.748218   4210.912466  -7459.586202   -262.936347  4  6  3  91       
PG16  -6209.302629 -15054.647779 -21079.355542   -107.015208  3  7  6  93       
PG17  -6396.523886  14066.752653  22021.310340    187.666913  4  5  6 100       
PG18 -18482.429040 -13862.497552  12678.788694 999999.999999
PG19   2017.866359  14889.734779  21607.385381   -220.990019  2  7  6  95       
PG20  14788.063050 -21168.086270  -5837.233637    527.740549  6  5  4  82       
PG21   7435.639820 -15075.121727 -19826.003870    -65.003307  6  5  5 114       
PG22 -16629.951530  -1852.354085  20826.763230   -779.388252  7  5  4 103       
PG23 -26560.907730   1330.681082  -2705.280301   -147.085498  4  5  6  88       
PG24  18981.934885   7682.432188  16919.242876     -6.718247  2  7  4  53       
PG25  18697.984651 -14744.820312  11258.338494    -16.984475  6  5  4  72       
PG26    404.148479 -21757.466483 -15104.388731    114.062919  6  9  6  76       
PG27 -16568.404115 -12235.725026 -17062.325764   -162.285501  5  5  4  78       
PG28 -11368.065707  23012.618283   7689.214179    748.660539  6  6  3  79       
PG29  23381.511672  -5066.815476 -11588.385978      8.497214  6  6  5  97       
PG30  -2904.823177  21013.445368 -15832.889224   -114.810465  6  3  4  79       
PG31  -5617.060077 -24452.699373   7937.551299    -12.375079  3  6  6  88       
PG32   5212.003328 -14910.975665  21396.711836    167.037742  5  4  6  96       
EOF
